FENGYUN 1C DEB          
1 33748U 99025DJM 24302.89458570  .00012542  00000+0  49484-2 0  9991
2 33748  98.6244 352.2987 0036374  10.6505 349.5439 14.28829431855294
FENGYUN 1C DEB          
1 35088U 99025DJQ 24279.86486452  .00031423  00000+0  15213-1 0  9991
2 35088  94.6435 300.2317 0308673  93.9906 269.6609 13.96323879527212
FENGYUN 1C DEB          
1 35089U 99025DJR 24302.76979252  .00001786  00000+0  89064-3 0  9999
2 35089  98.5794 320.3950 0030941 169.6785 190.5032 14.17865500844766
FENGYUN 1C DEB          
1 35090U 99025DJS 24299.92655058  .00007641  00000+0  40064-2 0  9991
2 35090  99.1978 293.1632 0060201  98.9216 261.8777 14.13555179825815
FENGYUN 1C DEB          
1 35091U 99025DJT 24302.20142264  .00035110  00000+0  92717-2 0  9992
2 35091  98.6074  28.7075 0061608 112.3860 248.3875 14.47619340839562
FENGYUN 1C DEB          
1 35102U 99025DKE 24282.30316046  .00006121  00000+0  24835-2 0  9990
2 35102  98.4983 298.4735 0060454 276.4206  83.0093 14.26995706587695
FENGYUN 1C DEB          
1 35105U 99025DKH 24302.14338599  .00004705  00000+0  12990-2 0  9990
2 35105  98.8905 257.0061 0114369 197.5432 162.1792 14.43471908885652
FENGYUN 1C DEB          
1 35108U 99025DKL 24297.24573998  .00000826  00000+0  48624-3 0  9995
2 35108  98.7861 298.4821 0135981 149.3002 211.6211 14.06080340833978
FENGYUN 1C DEB          
1 35111U 99025DKP 24302.88755612  .00002430  00000+0  14027-2 0  9993
2 35111  99.5100 353.1893 0021229 279.5284  80.3485 14.09994377583661
FENGYUN 1C DEB          
1 35116U 99025DKU 24300.85539919  .00004145  00000+0  18362-2 0  9994
2 35116  98.6902 346.1489 0064251 162.5339 197.8070 14.22540538838098
FENGYUN 1C DEB          
1 35121U 99025DKZ 24299.98027515  .00001056  00000+0  61687-3 0  9992
2 35121  98.3548 190.8276 0157785 188.4887 171.3608 14.04291538552972
FENGYUN 1C DEB          
1 35122U 99025DLA 24302.34151934  .00001903  00000+0  10338-2 0  9998
2 35122  98.7066 326.2996 0024266 249.5725 110.2841 14.13364855580686
