[{"OBJECT_NAME":"FENGYUN 1C DEB","OBJECT_ID":"1999-025DJM","EPOCH":"2024-10-28T21:28:12.204480","MEAN_MOTION":14.28829431,"ECCENTRICITY":0.0036374,"INCLINATION":98.6244,"RA_OF_ASC_NODE":352.2987,"ARG_OF_PERICENTER":10.6505,"MEAN_ANOMALY":349.5439,"EPHEMERIS_TYPE":0,"CLASSIFICATION_TYPE":"U","NORAD_CAT_ID":33748,"ELEMENT_SET_NO":999,"REV_AT_EPOCH":85533,"BSTAR":0.0049484,"MEAN_MOTION_DOT":0.00012542,"MEAN_MOTION_DDOT":0},{"OBJECT_NAME":"FENGYUN 1C DEB","OBJECT_ID":"1999-025DJQ","EPOCH":"2024-10-05T20:45:24.294528","MEAN_MOTION":13.96323879,"ECCENTRICITY":0.0308673,"INCLINATION":94.6435,"RA_OF_ASC_NODE":300.2317,"ARG_OF_PERICENTER":93.9906,"MEAN_ANOMALY":269.6609,"EPHEMERIS_TYPE":0,"CLASSIFICATION_TYPE":"U","NORAD_CAT_ID":35088,"ELEMENT_SET_NO":999,"REV_AT_EPOCH":52721,"BSTAR":0.015213,"MEAN_MOTION_DOT":0.00031423,"MEAN_MOTION_DDOT":0},{"OBJECT_NAME":"FENGYUN 1C DEB","OBJECT_ID":"1999-025DJR","EPOCH":"2024-10-28T18:28:30.073728","MEAN_MOTION":14.178655,"ECCENTRICITY":0.0030941,"INCLINATION":98.5794,"RA_OF_ASC_NODE":320.395,"ARG_OF_PERICENTER":169.6785,"MEAN_ANOMALY":190.5032,"EPHEMERIS_TYPE":0,"CLASSIFICATION_TYPE":"U","NORAD_CAT_ID":35089,"ELEMENT_SET_NO":999,"REV_AT_EPOCH":84476,"BSTAR":0.00089064,"MEAN_MOTION_DOT":1.786e-5,"MEAN_MOTION_DDOT":0},{"OBJECT_NAME":"FENGYUN 1C DEB","OBJECT_ID":"1999-025DJS","EPOCH":"2024-10-25T22:14:13.970112","MEAN_MOTION":14.13555179,"ECCENTRICITY":0.0060201,"INCLINATION":99.1978,"RA_OF_ASC_NODE":293.1632,"ARG_OF_PERICENTER":98.9216,"MEAN_ANOMALY":261.8777,"EPHEMERIS_TYPE":0,"CLASSIFICATION_TYPE":"U","NORAD_CAT_ID":35090,"ELEMENT_SET_NO":999,"REV_AT_EPOCH":82581,"BSTAR":0.0040064,"MEAN_MOTION_DOT":7.641e-5,"MEAN_MOTION_DDOT":0},{"OBJECT_NAME":"FENGYUN 1C DEB","OBJECT_ID":"1999-025DJT","EPOCH":"2024-10-28T04:50:02.916096","MEAN_MOTION":14.4761934,"ECCENTRICITY":0.0061608,"INCLINATION":98.6074,"RA_OF_ASC_NODE":28.7075,"ARG_OF_PERICENTER":112.386,"MEAN_ANOMALY":248.3875,"EPHEMERIS_TYPE":0,"CLASSIFICATION_TYPE":"U","NORAD_CAT_ID":35091,"ELEMENT_SET_NO":999,"REV_AT_EPOCH":83956,"BSTAR":0.0092717,"MEAN_MOTION_DOT":0.0003511,"MEAN_MOTION_DDOT":0},{"OBJECT_NAME":"FENGYUN 1C DEB","OBJECT_ID":"1999-025DKE","EPOCH":"2024-10-08T07:16:33.063744","MEAN_MOTION":14.26995706,"ECCENTRICITY":0.0060454,"INCLINATION":98.4983,"RA_OF_ASC_NODE":298.4735,"ARG_OF_PERICENTER":276.4206,"MEAN_ANOMALY":83.0093,"EPHEMERIS_TYPE":0,"CLASSIFICATION_TYPE":"U","NORAD_CAT_ID":35102,"ELEMENT_SET_NO":999,"REV_AT_EPOCH":58769,"BSTAR":0.0024835,"MEAN_MOTION_DOT":6.121e-5,"MEAN_MOTION_DDOT":0},{"OBJECT_NAME":"FENGYUN 1C DEB","OBJECT_ID":"1999-025DKH","EPOCH":"2024-10-28T03:26:28.549536","MEAN_MOTION":14.43471908,"ECCENTRICITY":0.0114369,"INCLINATION":98.8905,"RA_OF_ASC_NODE":257.0061,"ARG_OF_PERICENTER":197.5432,"MEAN_ANOMALY":162.1792,"EPHEMERIS_TYPE":0,"CLASSIFICATION_TYPE":"U","NORAD_CAT_ID":35105,"ELEMENT_SET_NO":999,"REV_AT_EPOCH":88565,"BSTAR":0.001299,"MEAN_MOTION_DOT":4.705e-5,"MEAN_MOTION_DDOT":0},{"OBJECT_NAME":"FENGYUN 1C DEB","OBJECT_ID":"1999-025DKL","EPOCH":"2024-10-23T05:53:51.934272","MEAN_MOTION":14.0608034,"ECCENTRICITY":0.0135981,"INCLINATION":98.7861,"RA_OF_ASC_NODE":298.4821,"ARG_OF_PERICENTER":149.3002,"MEAN_ANOMALY":211.6211,"EPHEMERIS_TYPE":0,"CLASSIFICATION_TYPE":"U","NORAD_CAT_ID":35108,"ELEMENT_SET_NO":999,"REV_AT_EPOCH":83397,"BSTAR":0.00048624,"MEAN_MOTION_DOT":8.26e-6,"MEAN_MOTION_DDOT":0},{"OBJECT_NAME":"FENGYUN 1C DEB","OBJECT_ID":"1999-025DKP","EPOCH":"2024-10-28T21:18:04.848768","MEAN_MOTION":14.09994377,"ECCENTRICITY":0.0021229,"INCLINATION":99.51,"RA_OF_ASC_NODE":353.1893,"ARG_OF_PERICENTER":279.5284,"MEAN_ANOMALY":80.3485,"EPHEMERIS_TYPE":0,"CLASSIFICATION_TYPE":"U","NORAD_CAT_ID":35111,"ELEMENT_SET_NO":999,"REV_AT_EPOCH":58366,"BSTAR":0.0014027,"MEAN_MOTION_DOT":2.43e-5,"MEAN_MOTION_DDOT":0},{"OBJECT_NAME":"FENGYUN 1C DEB","OBJECT_ID":"1999-025DKU","EPOCH":"2024-10-26T20:31:46.490016","MEAN_MOTION":14.22540538,"ECCENTRICITY":0.0064251,"INCLINATION":98.6902,"RA_OF_ASC_NODE":346.1489,"ARG_OF_PERICENTER":162.5339,"MEAN_ANOMALY":197.807,"EPHEMERIS_TYPE":0,"CLASSIFICATION_TYPE":"U","NORAD_CAT_ID":35116,"ELEMENT_SET_NO":999,"REV_AT_EPOCH":54098,"BSTAR":0.0018362,"MEAN_MOTION_DOT":4.145e-5,"MEAN_MOTION_DDOT":0},{"OBJECT_NAME":"FENGYUN 1C DEB","OBJECT_ID":"1999-025DKZ","EPOCH":"2024-10-25T23:31:35.772960","MEAN_MOTION":14.04291538,"ECCENTRICITY":0.0157785,"INCLINATION":98.3548,"RA_OF_ASC_NODE":190.8276,"ARG_OF_PERICENTER":188.4887,"MEAN_ANOMALY":171.3608,"EPHEMERIS_TYPE":0,"CLASSIFICATION_TYPE":"U","NORAD_CAT_ID":35121,"ELEMENT_SET_NO":999,"REV_AT_EPOCH":55297,"BSTAR":0.00061687,"MEAN_MOTION_DOT":1.056e-5,"MEAN_MOTION_DDOT":0},{"OBJECT_NAME":"FENGYUN 1C DEB","OBJECT_ID":"1999-025DLA","EPOCH":"2024-10-28T08:11:47.270976","MEAN_MOTION":14.13364855,"ECCENTRICITY":0.0024266,"INCLINATION":98.7066,"RA_OF_ASC_NODE":326.2996,"ARG_OF_PERICENTER":249.5725,"MEAN_ANOMALY":110.2841,"EPHEMERIS_TYPE":0,"CLASSIFICATION_TYPE":"U","NORAD_CAT_ID":35122,"ELEMENT_SET_NO":999,"REV_AT_EPOCH":58068,"BSTAR":0.0010338,"MEAN_MOTION_DOT":1.903e-5,"MEAN_MOTION_DDOT":0}]